SAT_00_00
1 00001U 24001A   24001.00000000  .00000000  00000-0  00000-0 0  9993
2 00001  21.4170   0.0000 0000000   0.0000   0.0000 15.60780979000000
SAT_00_01
1 00002U 24001A   24001.00000000  .00000000  00000-0  00000-0 0  9994
2 00002  21.4170   0.0000 0000000   0.0000  12.8571 15.60780979000005
SAT_00_02
1 00003U 24001A   24001.00000000  .00000000  00000-0  00000-0 0  9995
2 00003  21.4170   0.0000 0000000   0.0000  25.7143 15.60780979000004
SAT_00_03
1 00004U 24001A   24001.00000000  .00000000  00000-0  00000-0 0  9996
2 00004  21.4170   0.0000 0000000   0.0000  38.5714 15.60780979000001
SAT_00_04
1 00005U 24001A   24001.00000000  .00000000  00000-0  00000-0 0  9997
2 00005  21.4170   0.0000 0000000   0.0000  51.4286 15.60780979000000
SAT_00_05
1 00006U 24001A   24001.00000000  .00000000  00000-0  00000-0 0  9998
2 00006  21.4170   0.0000 0000000   0.0000  64.2857 15.60780979000007
SAT_00_06
1 00007U 24001A   24001.00000000  .00000000  00000-0  00000-0 0  9999
2 00007  21.4170   0.0000 0000000   0.0000  77.1429 15.60780979000006
SAT_00_07
1 00008U 24001A   24001.00000000  .00000000  00000-0  00000-0 0  9990
2 00008  21.4170   0.0000 0000000   0.0000  90.0000 15.60780979000006
SAT_00_08
1 00009U 24001A   24001.00000000  .00000000  00000-0  00000-0 0  9991
2 00009  21.4170   0.0000 0000000   0.0000 102.8571 15.60780979000002
SAT_00_09
1 00010U 24001A   24001.00000000  .00000000  00000-0  00000-0 0  9993
2 00010  21.4170   0.0000 0000000   0.0000 115.7143 15.60780979000002
SAT_00_10
1 00011U 24001A   24001.00000000  .00000000  00000-0  00000-0 0  9994
2 00011  21.4170   0.0000 0000000   0.0000 128.5714 15.60780979000009
SAT_00_11
1 00012U 24001A   24001.00000000  .00000000  00000-0  00000-0 0  9995
2 00012  21.4170   0.0000 0000000   0.0000 141.4286 15.60780979000008
SAT_00_12
1 00013U 24001A   24001.00000000  .00000000  00000-0  00000-0 0  9996
2 00013  21.4170   0.0000 0000000   0.0000 154.2857 15.60780979000005
SAT_00_13
1 00014U 24001A   24001.00000000  .00000000  00000-0  00000-0 0  9997
2 00014  21.4170   0.0000 0000000   0.0000 167.1429 15.60780979000004
SAT_00_14
1 00015U 24001A   24001.00000000  .00000000  00000-0  00000-0 0  9998
2 00015  21.4170   0.0000 0000000   0.0000 180.0000 15.60780979000004
SAT_00_15
1 00016U 24001A   24001.00000000  .00000000  00000-0  00000-0 0  9999
2 00016  21.4170   0.0000 0000000   0.0000 192.8571 15.60780979000009
SAT_00_16
1 00017U 24001A   24001.00000000  .00000000  00000-0  00000-0 0  9990
2 00017  21.4170   0.0000 0000000   0.0000 205.7143 15.60780979000009
SAT_00_17
1 00018U 24001A   24001.00000000  .00000000  00000-0  00000-0 0  9991
2 00018  21.4170   0.0000 0000000   0.0000 218.5714 15.60780979000006
SAT_00_18
1 00019U 24001A   24001.00000000  .00000000  00000-0  00000-0 0  9992
2 00019  21.4170   0.0000 0000000   0.0000 231.4286 15.60780979000005
SAT_00_19
1 00020U 24001A   24001.00000000  .00000000  00000-0  00000-0 0  9994
2 00020  21.4170   0.0000 0000000   0.0000 244.2857 15.60780979000003
SAT_00_20
1 00021U 24001A   24001.00000000  .00000000  00000-0  00000-0 0  9995
2 00021  21.4170   0.0000 0000000   0.0000 257.1429 15.60780979000002
SAT_00_21
1 00022U 24001A   24001.00000000  .00000000  00000-0  00000-0 0  9996
2 00022  21.4170   0.0000 0000000   0.0000 270.0000 15.60780979000002
SAT_00_22
1 00023U 24001A   24001.00000000  .00000000  00000-0  00000-0 0  9997
2 00023  21.4170   0.0000 0000000   0.0000 282.8571 15.60780979000007
SAT_00_23
1 00024U 24001A   24001.00000000  .00000000  00000-0  00000-0 0  9998
2 00024  21.4170   0.0000 0000000   0.0000 295.7143 15.60780979000006
SAT_00_24
1 00025U 24001A   24001.00000000  .00000000  00000-0  00000-0 0  9999
2 00025  21.4170   0.0000 0000000   0.0000 308.5714 15.60780979000004
SAT_00_25
1 00026U 24001A   24001.00000000  .00000000  00000-0  00000-0 0  9990
2 00026  21.4170   0.0000 0000000   0.0000 321.4286 15.60780979000003
SAT_00_26
1 00027U 24001A   24001.00000000  .00000000  00000-0  00000-0 0  9991
2 00027  21.4170   0.0000 0000000   0.0000 334.2857 15.60780979000000
SAT_00_27
1 00028U 24001A   24001.00000000  .00000000  00000-0  00000-0 0  9992
2 00028  21.4170   0.0000 0000000   0.0000 347.1429 15.60780979000009
SAT_01_00
1 00029U 24001A   24001.00000000  .00000000  00000-0  00000-0 0  9993
2 00029  21.4170 282.8376 0000000   0.0000   0.0000 15.60780979000006
SAT_01_01
1 00030U 24001A   24001.00000000  .00000000  00000-0  00000-0 0  9995
2 00030  21.4170 282.8376 0000000   0.0000  12.8571 15.60780979000002
SAT_01_02
1 00031U 24001A   24001.00000000  .00000000  00000-0  00000-0 0  9996
2 00031  21.4170 282.8376 0000000   0.0000  25.7143 15.60780979000001
SAT_01_03
1 00032U 24001A   24001.00000000  .00000000  00000-0  00000-0 0  9997
2 00032  21.4170 282.8376 0000000   0.0000  38.5714 15.60780979000008
SAT_01_04
1 00033U 24001A   24001.00000000  .00000000  00000-0  00000-0 0  9998
2 00033  21.4170 282.8376 0000000   0.0000  51.4286 15.60780979000007
SAT_01_05
1 00034U 24001A   24001.00000000  .00000000  00000-0  00000-0 0  9999
2 00034  21.4170 282.8376 0000000   0.0000  64.2857 15.60780979000004
SAT_01_06
1 00035U 24001A   24001.00000000  .00000000  00000-0  00000-0 0  9990
2 00035  21.4170 282.8376 0000000   0.0000  77.1429 15.60780979000003
SAT_01_07
1 00036U 24001A   24001.00000000  .00000000  00000-0  00000-0 0  9991
2 00036  21.4170 282.8376 0000000   0.0000  90.0000 15.60780979000003
SAT_01_08
1 00037U 24001A   24001.00000000  .00000000  00000-0  00000-0 0  9992
2 00037  21.4170 282.8376 0000000   0.0000 102.8571 15.60780979000009
SAT_01_09
1 00038U 24001A   24001.00000000  .00000000  00000-0  00000-0 0  9993
2 00038  21.4170 282.8376 0000000   0.0000 115.7143 15.60780979000008
SAT_01_10
1 00039U 24001A   24001.00000000  .00000000  00000-0  00000-0 0  9994
2 00039  21.4170 282.8376 0000000   0.0000 128.5714 15.60780979000005
SAT_01_11
1 00040U 24001A   24001.00000000  .00000000  00000-0  00000-0 0  9996
2 00040  21.4170 282.8376 0000000   0.0000 141.4286 15.60780979000005
SAT_01_12
1 00041U 24001A   24001.00000000  .00000000  00000-0  00000-0 0  9997
2 00041  21.4170 282.8376 0000000   0.0000 154.2857 15.60780979000002
SAT_01_13
1 00042U 24001A   24001.00000000  .00000000  00000-0  00000-0 0  9998
2 00042  21.4170 282.8376 0000000   0.0000 167.1429 15.60780979000001
SAT_01_14
1 00043U 24001A   24001.00000000  .00000000  00000-0  00000-0 0  9999
2 00043  21.4170 282.8376 0000000   0.0000 180.0000 15.60780979000001
SAT_01_15
1 00044U 24001A   24001.00000000  .00000000  00000-0  00000-0 0  9990
2 00044  21.4170 282.8376 0000000   0.0000 192.8571 15.60780979000006
SAT_01_16
1 00045U 24001A   24001.00000000  .00000000  00000-0  00000-0 0  9991
2 00045  21.4170 282.8376 0000000   0.0000 205.7143 15.60780979000006
SAT_01_17
1 00046U 24001A   24001.00000000  .00000000  00000-0  00000-0 0  9992
2 00046  21.4170 282.8376 0000000   0.0000 218.5714 15.60780979000003
SAT_01_18
1 00047U 24001A   24001.00000000  .00000000  00000-0  00000-0 0  9993
2 00047  21.4170 282.8376 0000000   0.0000 231.4286 15.60780979000002
SAT_01_19
1 00048U 24001A   24001.00000000  .00000000  00000-0  00000-0 0  9994
2 00048  21.4170 282.8376 0000000   0.0000 244.2857 15.60780979000009
SAT_01_20
1 00049U 24001A   24001.00000000  .00000000  00000-0  00000-0 0  9995
2 00049  21.4170 282.8376 0000000   0.0000 257.1429 15.60780979000008
SAT_01_21
1 00050U 24001A   24001.00000000  .00000000  00000-0  00000-0 0  9997
2 00050  21.4170 282.8376 0000000   0.0000 270.0000 15.60780979000009
SAT_01_22
1 00051U 24001A   24001.00000000  .00000000  00000-0  00000-0 0  9998
2 00051  21.4170 282.8376 0000000   0.0000 282.8571 15.60780979000004
SAT_01_23
1 00052U 24001A   24001.00000000  .00000000  00000-0  00000-0 0  9999
2 00052  21.4170 282.8376 0000000   0.0000 295.7143 15.60780979000003
SAT_01_24
1 00053U 24001A   24001.00000000  .00000000  00000-0  00000-0 0  9990
2 00053  21.4170 282.8376 0000000   0.0000 308.5714 15.60780979000001
SAT_01_25
1 00054U 24001A   24001.00000000  .00000000  00000-0  00000-0 0  9991
2 00054  21.4170 282.8376 0000000   0.0000 321.4286 15.60780979000000
SAT_01_26
1 00055U 24001A   24001.00000000  .00000000  00000-0  00000-0 0  9992
2 00055  21.4170 282.8376 0000000   0.0000 334.2857 15.60780979000007
SAT_01_27
1 00056U 24001A   24001.00000000  .00000000  00000-0  00000-0 0  9993
2 00056  21.4170 282.8376 0000000   0.0000 347.1429 15.60780979000006
SAT_02_00
1 00057U 24001A   24001.00000000  .00000000  00000-0  00000-0 0  9994
2 00057  21.4170 205.6753 0000000   0.0000   0.0000 15.60780979000009
SAT_02_01
1 00058U 24001A   24001.00000000  .00000000  00000-0  00000-0 0  9995
2 00058  21.4170 205.6753 0000000   0.0000  12.8571 15.60780979000004
SAT_02_02
1 00059U 24001A   24001.00000000  .00000000  00000-0  00000-0 0  9996
2 00059  21.4170 205.6753 0000000   0.0000  25.7143 15.60780979000003
SAT_02_03
1 00060U 24001A   24001.00000000  .00000000  00000-0  00000-0 0  9998
2 00060  21.4170 205.6753 0000000   0.0000  38.5714 15.60780979000001
SAT_02_04
1 00061U 24001A   24001.00000000  .00000000  00000-0  00000-0 0  9999
2 00061  21.4170 205.6753 0000000   0.0000  51.4286 15.60780979000000
SAT_02_05
1 00062U 24001A   24001.00000000  .00000000  00000-0  00000-0 0  9990
2 00062  21.4170 205.6753 0000000   0.0000  64.2857 15.60780979000007
SAT_02_06
1 00063U 24001A   24001.00000000  .00000000  00000-0  00000-0 0  9991
2 00063  21.4170 205.6753 0000000   0.0000  77.1429 15.60780979000006
SAT_02_07
1 00064U 24001A   24001.00000000  .00000000  00000-0  00000-0 0  9992
2 00064  21.4170 205.6753 0000000   0.0000  90.0000 15.60780979000006
SAT_02_08
1 00065U 24001A   24001.00000000  .00000000  00000-0  00000-0 0  9993
2 00065  21.4170 205.6753 0000000   0.0000 102.8571 15.60780979000002
SAT_02_09
1 00066U 24001A   24001.00000000  .00000000  00000-0  00000-0 0  9994
2 00066  21.4170 205.6753 0000000   0.0000 115.7143 15.60780979000001
SAT_02_10
1 00067U 24001A   24001.00000000  .00000000  00000-0  00000-0 0  9995
2 00067  21.4170 205.6753 0000000   0.0000 128.5714 15.60780979000008
SAT_02_11
1 00068U 24001A   24001.00000000  .00000000  00000-0  00000-0 0  9996
2 00068  21.4170 205.6753 0000000   0.0000 141.4286 15.60780979000007
SAT_02_12
1 00069U 24001A   24001.00000000  .00000000  00000-0  00000-0 0  9997
2 00069  21.4170 205.6753 0000000   0.0000 154.2857 15.60780979000004
SAT_02_13
1 00070U 24001A   24001.00000000  .00000000  00000-0  00000-0 0  9999
2 00070  21.4170 205.6753 0000000   0.0000 167.1429 15.60780979000004
SAT_02_14
1 00071U 24001A   24001.00000000  .00000000  00000-0  00000-0 0  9990
2 00071  21.4170 205.6753 0000000   0.0000 180.0000 15.60780979000004
SAT_02_15
1 00072U 24001A   24001.00000000  .00000000  00000-0  00000-0 0  9991
2 00072  21.4170 205.6753 0000000   0.0000 192.8571 15.60780979000009
SAT_02_16
1 00073U 24001A   24001.00000000  .00000000  00000-0  00000-0 0  9992
2 00073  21.4170 205.6753 0000000   0.0000 205.7143 15.60780979000009
SAT_02_17
1 00074U 24001A   24001.00000000  .00000000  00000-0  00000-0 0  9993
2 00074  21.4170 205.6753 0000000   0.0000 218.5714 15.60780979000006
SAT_02_18
1 00075U 24001A   24001.00000000  .00000000  00000-0  00000-0 0  9994
2 00075  21.4170 205.6753 0000000   0.0000 231.4286 15.60780979000005
SAT_02_19
1 00076U 24001A   24001.00000000  .00000000  00000-0  00000-0 0  9995
2 00076  21.4170 205.6753 0000000   0.0000 244.2857 15.60780979000002
SAT_02_20
1 00077U 24001A   24001.00000000  .00000000  00000-0  00000-0 0  9996
2 00077  21.4170 205.6753 0000000   0.0000 257.1429 15.60780979000001
SAT_02_21
1 00078U 24001A   24001.00000000  .00000000  00000-0  00000-0 0  9997
2 00078  21.4170 205.6753 0000000   0.0000 270.0000 15.60780979000001
SAT_02_22
1 00079U 24001A   24001.00000000  .00000000  00000-0  00000-0 0  9998
2 00079  21.4170 205.6753 0000000   0.0000 282.8571 15.60780979000006
SAT_02_23
1 00080U 24001A   24001.00000000  .00000000  00000-0  00000-0 0  9990
2 00080  21.4170 205.6753 0000000   0.0000 295.7143 15.60780979000006
SAT_02_24
1 00081U 24001A   24001.00000000  .00000000  00000-0  00000-0 0  9991
2 00081  21.4170 205.6753 0000000   0.0000 308.5714 15.60780979000004
SAT_02_25
1 00082U 24001A   24001.00000000  .00000000  00000-0  00000-0 0  9992
2 00082  21.4170 205.6753 0000000   0.0000 321.4286 15.60780979000003
SAT_02_26
1 00083U 24001A   24001.00000000  .00000000  00000-0  00000-0 0  9993
2 00083  21.4170 205.6753 0000000   0.0000 334.2857 15.60780979000000
SAT_02_27
1 00084U 24001A   24001.00000000  .00000000  00000-0  00000-0 0  9994
2 00084  21.4170 205.6753 0000000   0.0000 347.1429 15.60780979000009
SAT_03_00
1 00085U 24001A   24001.00000000  .00000000  00000-0  00000-0 0  9995
2 00085  21.4170 128.5129 0000000   0.0000   0.0000 15.60780979000000
SAT_03_01
1 00086U 24001A   24001.00000000  .00000000  00000-0  00000-0 0  9996
2 00086  21.4170 128.5129 0000000   0.0000  12.8571 15.60780979000005
SAT_03_02
1 00087U 24001A   24001.00000000  .00000000  00000-0  00000-0 0  9997
2 00087  21.4170 128.5129 0000000   0.0000  25.7143 15.60780979000004
SAT_03_03
1 00088U 24001A   24001.00000000  .00000000  00000-0  00000-0 0  9998
2 00088  21.4170 128.5129 0000000   0.0000  38.5714 15.60780979000001
SAT_03_04
1 00089U 24001A   24001.00000000  .00000000  00000-0  00000-0 0  9999
2 00089  21.4170 128.5129 0000000   0.0000  51.4286 15.60780979000000
SAT_03_05
1 00090U 24001A   24001.00000000  .00000000  00000-0  00000-0 0  9991
2 00090  21.4170 128.5129 0000000   0.0000  64.2857 15.60780979000008
SAT_03_06
1 00091U 24001A   24001.00000000  .00000000  00000-0  00000-0 0  9992
2 00091  21.4170 128.5129 0000000   0.0000  77.1429 15.60780979000007
SAT_03_07
1 00092U 24001A   24001.00000000  .00000000  00000-0  00000-0 0  9993
2 00092  21.4170 128.5129 0000000   0.0000  90.0000 15.60780979000007
SAT_03_08
1 00093U 24001A   24001.00000000  .00000000  00000-0  00000-0 0  9994
2 00093  21.4170 128.5129 0000000   0.0000 102.8571 15.60780979000003
SAT_03_09
1 00094U 24001A   24001.00000000  .00000000  00000-0  00000-0 0  9995
2 00094  21.4170 128.5129 0000000   0.0000 115.7143 15.60780979000002
SAT_03_10
1 00095U 24001A   24001.00000000  .00000000  00000-0  00000-0 0  9996
2 00095  21.4170 128.5129 0000000   0.0000 128.5714 15.60780979000009
SAT_03_11
1 00096U 24001A   24001.00000000  .00000000  00000-0  00000-0 0  9997
2 00096  21.4170 128.5129 0000000   0.0000 141.4286 15.60780979000008
SAT_03_12
1 00097U 24001A   24001.00000000  .00000000  00000-0  00000-0 0  9998
2 00097  21.4170 128.5129 0000000   0.0000 154.2857 15.60780979000005
SAT_03_13
1 00098U 24001A   24001.00000000  .00000000  00000-0  00000-0 0  9999
2 00098  21.4170 128.5129 0000000   0.0000 167.1429 15.60780979000004
SAT_03_14
1 00099U 24001A   24001.00000000  .00000000  00000-0  00000-0 0  9990
2 00099  21.4170 128.5129 0000000   0.0000 180.0000 15.60780979000004
SAT_03_15
1 00100U 24001A   24001.00000000  .00000000  00000-0  00000-0 0  9993
2 00100  21.4170 128.5129 0000000   0.0000 192.8571 15.60780979000001
SAT_03_16
1 00101U 24001A   24001.00000000  .00000000  00000-0  00000-0 0  9994
2 00101  21.4170 128.5129 0000000   0.0000 205.7143 15.60780979000001
SAT_03_17
1 00102U 24001A   24001.00000000  .00000000  00000-0  00000-0 0  9995
2 00102  21.4170 128.5129 0000000   0.0000 218.5714 15.60780979000008
SAT_03_18
1 00103U 24001A   24001.00000000  .00000000  00000-0  00000-0 0  9996
2 00103  21.4170 128.5129 0000000   0.0000 231.4286 15.60780979000007
SAT_03_19
1 00104U 24001A   24001.00000000  .00000000  00000-0  00000-0 0  9997
2 00104  21.4170 128.5129 0000000   0.0000 244.2857 15.60780979000004
SAT_03_20
1 00105U 24001A   24001.00000000  .00000000  00000-0  00000-0 0  9998
2 00105  21.4170 128.5129 0000000   0.0000 257.1429 15.60780979000003
SAT_03_21
1 00106U 24001A   24001.00000000  .00000000  00000-0  00000-0 0  9999
2 00106  21.4170 128.5129 0000000   0.0000 270.0000 15.60780979000003
SAT_03_22
1 00107U 24001A   24001.00000000  .00000000  00000-0  00000-0 0  9990
2 00107  21.4170 128.5129 0000000   0.0000 282.8571 15.60780979000008
SAT_03_23
1 00108U 24001A   24001.00000000  .00000000  00000-0  00000-0 0  9991
2 00108  21.4170 128.5129 0000000   0.0000 295.7143 15.60780979000007
SAT_03_24
1 00109U 24001A   24001.00000000  .00000000  00000-0  00000-0 0  9992
2 00109  21.4170 128.5129 0000000   0.0000 308.5714 15.60780979000005
SAT_03_25
1 00110U 24001A   24001.00000000  .00000000  00000-0  00000-0 0  9994
2 00110  21.4170 128.5129 0000000   0.0000 321.4286 15.60780979000005
SAT_03_26
1 00111U 24001A   24001.00000000  .00000000  00000-0  00000-0 0  9995
2 00111  21.4170 128.5129 0000000   0.0000 334.2857 15.60780979000002
SAT_03_27
1 00112U 24001A   24001.00000000  .00000000  00000-0  00000-0 0  9996
2 00112  21.4170 128.5129 0000000   0.0000 347.1429 15.60780979000001
SAT_04_00
1 00113U 24001A   24001.00000000  .00000000  00000-0  00000-0 0  9997
2 00113  21.4170  51.3506 0000000   0.0000   0.0000 15.60780979000004
SAT_04_01
1 00114U 24001A   24001.00000000  .00000000  00000-0  00000-0 0  9998
2 00114  21.4170  51.3506 0000000   0.0000  12.8571 15.60780979000009
SAT_04_02
1 00115U 24001A   24001.00000000  .00000000  00000-0  00000-0 0  9999
2 00115  21.4170  51.3506 0000000   0.0000  25.7143 15.60780979000008
SAT_04_03
1 00116U 24001A   24001.00000000  .00000000  00000-0  00000-0 0  9990
2 00116  21.4170  51.3506 0000000   0.0000  38.5714 15.60780979000005
SAT_04_04
1 00117U 24001A   24001.00000000  .00000000  00000-0  00000-0 0  9991
2 00117  21.4170  51.3506 0000000   0.0000  51.4286 15.60780979000004
SAT_04_05
1 00118U 24001A   24001.00000000  .00000000  00000-0  00000-0 0  9992
2 00118  21.4170  51.3506 0000000   0.0000  64.2857 15.60780979000001
SAT_04_06
1 00119U 24001A   24001.00000000  .00000000  00000-0  00000-0 0  9993
2 00119  21.4170  51.3506 0000000   0.0000  77.1429 15.60780979000000
SAT_04_07
1 00120U 24001A   24001.00000000  .00000000  00000-0  00000-0 0  9995
2 00120  21.4170  51.3506 0000000   0.0000  90.0000 15.60780979000001
SAT_04_08
1 00121U 24001A   24001.00000000  .00000000  00000-0  00000-0 0  9996
2 00121  21.4170  51.3506 0000000   0.0000 102.8571 15.60780979000007
SAT_04_09
1 00122U 24001A   24001.00000000  .00000000  00000-0  00000-0 0  9997
2 00122  21.4170  51.3506 0000000   0.0000 115.7143 15.60780979000006
SAT_04_10
1 00123U 24001A   24001.00000000  .00000000  00000-0  00000-0 0  9998
2 00123  21.4170  51.3506 0000000   0.0000 128.5714 15.60780979000003
SAT_04_11
1 00124U 24001A   24001.00000000  .00000000  00000-0  00000-0 0  9999
2 00124  21.4170  51.3506 0000000   0.0000 141.4286 15.60780979000002
SAT_04_12
1 00125U 24001A   24001.00000000  .00000000  00000-0  00000-0 0  9990
2 00125  21.4170  51.3506 0000000   0.0000 154.2857 15.60780979000009
SAT_04_13
1 00126U 24001A   24001.00000000  .00000000  00000-0  00000-0 0  9991
2 00126  21.4170  51.3506 0000000   0.0000 167.1429 15.60780979000008
SAT_04_14
1 00127U 24001A   24001.00000000  .00000000  00000-0  00000-0 0  9992
2 00127  21.4170  51.3506 0000000   0.0000 180.0000 15.60780979000008
SAT_04_15
1 00128U 24001A   24001.00000000  .00000000  00000-0  00000-0 0  9993
2 00128  21.4170  51.3506 0000000   0.0000 192.8571 15.60780979000003
SAT_04_16
1 00129U 24001A   24001.00000000  .00000000  00000-0  00000-0 0  9994
2 00129  21.4170  51.3506 0000000   0.0000 205.7143 15.60780979000003
SAT_04_17
1 00130U 24001A   24001.00000000  .00000000  00000-0  00000-0 0  9996
2 00130  21.4170  51.3506 0000000   0.0000 218.5714 15.60780979000001
SAT_04_18
1 00131U 24001A   24001.00000000  .00000000  00000-0  00000-0 0  9997
2 00131  21.4170  51.3506 0000000   0.0000 231.4286 15.60780979000000
SAT_04_19
1 00132U 24001A   24001.00000000  .00000000  00000-0  00000-0 0  9998
2 00132  21.4170  51.3506 0000000   0.0000 244.2857 15.60780979000007
SAT_04_20
1 00133U 24001A   24001.00000000  .00000000  00000-0  00000-0 0  9999
2 00133  21.4170  51.3506 0000000   0.0000 257.1429 15.60780979000006
SAT_04_21
1 00134U 24001A   24001.00000000  .00000000  00000-0  00000-0 0  9990
2 00134  21.4170  51.3506 0000000   0.0000 270.0000 15.60780979000006
SAT_04_22
1 00135U 24001A   24001.00000000  .00000000  00000-0  00000-0 0  9991
2 00135  21.4170  51.3506 0000000   0.0000 282.8571 15.60780979000001
SAT_04_23
1 00136U 24001A   24001.00000000  .00000000  00000-0  00000-0 0  9992
2 00136  21.4170  51.3506 0000000   0.0000 295.7143 15.60780979000000
SAT_04_24
1 00137U 24001A   24001.00000000  .00000000  00000-0  00000-0 0  9993
2 00137  21.4170  51.3506 0000000   0.0000 308.5714 15.60780979000008
SAT_04_25
1 00138U 24001A   24001.00000000  .00000000  00000-0  00000-0 0  9994
2 00138  21.4170  51.3506 0000000   0.0000 321.4286 15.60780979000007
SAT_04_26
1 00139U 24001A   24001.00000000  .00000000  00000-0  00000-0 0  9995
2 00139  21.4170  51.3506 0000000   0.0000 334.2857 15.60780979000004
SAT_04_27
1 00140U 24001A   24001.00000000  .00000000  00000-0  00000-0 0  9997
2 00140  21.4170  51.3506 0000000   0.0000 347.1429 15.60780979000004
SAT_05_00
1 00141U 24001A   24001.00000000  .00000000  00000-0  00000-0 0  9998
2 00141  21.4170 334.1882 0000000   0.0000   0.0000 15.60780979000004
SAT_05_01
1 00142U 24001A   24001.00000000  .00000000  00000-0  00000-0 0  9999
2 00142  21.4170 334.1882 0000000   0.0000  12.8571 15.60780979000009
SAT_05_02
1 00143U 24001A   24001.00000000  .00000000  00000-0  00000-0 0  9990
2 00143  21.4170 334.1882 0000000   0.0000  25.7143 15.60780979000008
SAT_05_03
1 00144U 24001A   24001.00000000  .00000000  00000-0  00000-0 0  9991
2 00144  21.4170 334.1882 0000000   0.0000  38.5714 15.60780979000005
SAT_05_04
1 00145U 24001A   24001.00000000  .00000000  00000-0  00000-0 0  9992
2 00145  21.4170 334.1882 0000000   0.0000  51.4286 15.60780979000004
SAT_05_05
1 00146U 24001A   24001.00000000  .00000000  00000-0  00000-0 0  9993
2 00146  21.4170 334.1882 0000000   0.0000  64.2857 15.60780979000001
SAT_05_06
1 00147U 24001A   24001.00000000  .00000000  00000-0  00000-0 0  9994
2 00147  21.4170 334.1882 0000000   0.0000  77.1429 15.60780979000000
SAT_05_07
1 00148U 24001A   24001.00000000  .00000000  00000-0  00000-0 0  9995
2 00148  21.4170 334.1882 0000000   0.0000  90.0000 15.60780979000000
SAT_05_08
1 00149U 24001A   24001.00000000  .00000000  00000-0  00000-0 0  9996
2 00149  21.4170 334.1882 0000000   0.0000 102.8571 15.60780979000006
SAT_05_09
1 00150U 24001A   24001.00000000  .00000000  00000-0  00000-0 0  9998
2 00150  21.4170 334.1882 0000000   0.0000 115.7143 15.60780979000006
SAT_05_10
1 00151U 24001A   24001.00000000  .00000000  00000-0  00000-0 0  9999
2 00151  21.4170 334.1882 0000000   0.0000 128.5714 15.60780979000003
SAT_05_11
1 00152U 24001A   24001.00000000  .00000000  00000-0  00000-0 0  9990
2 00152  21.4170 334.1882 0000000   0.0000 141.4286 15.60780979000002
SAT_05_12
1 00153U 24001A   24001.00000000  .00000000  00000-0  00000-0 0  9991
2 00153  21.4170 334.1882 0000000   0.0000 154.2857 15.60780979000009
SAT_05_13
1 00154U 24001A   24001.00000000  .00000000  00000-0  00000-0 0  9992
2 00154  21.4170 334.1882 0000000   0.0000 167.1429 15.60780979000008
SAT_05_14
1 00155U 24001A   24001.00000000  .00000000  00000-0  00000-0 0  9993
2 00155  21.4170 334.1882 0000000   0.0000 180.0000 15.60780979000008
SAT_05_15
1 00156U 24001A   24001.00000000  .00000000  00000-0  00000-0 0  9994
2 00156  21.4170 334.1882 0000000   0.0000 192.8571 15.60780979000003
SAT_05_16
1 00157U 24001A   24001.00000000  .00000000  00000-0  00000-0 0  9995
2 00157  21.4170 334.1882 0000000   0.0000 205.7143 15.60780979000003
SAT_05_17
1 00158U 24001A   24001.00000000  .00000000  00000-0  00000-0 0  9996
2 00158  21.4170 334.1882 0000000   0.0000 218.5714 15.60780979000000
SAT_05_18
1 00159U 24001A   24001.00000000  .00000000  00000-0  00000-0 0  9997
2 00159  21.4170 334.1882 0000000   0.0000 231.4286 15.60780979000009
SAT_05_19
1 00160U 24001A   24001.00000000  .00000000  00000-0  00000-0 0  9999
2 00160  21.4170 334.1882 0000000   0.0000 244.2857 15.60780979000007
SAT_05_20
1 00161U 24001A   24001.00000000  .00000000  00000-0  00000-0 0  9990
2 00161  21.4170 334.1882 0000000   0.0000 257.1429 15.60780979000006
SAT_05_21
1 00162U 24001A   24001.00000000  .00000000  00000-0  00000-0 0  9991
2 00162  21.4170 334.1882 0000000   0.0000 270.0000 15.60780979000006
SAT_05_22
1 00163U 24001A   24001.00000000  .00000000  00000-0  00000-0 0  9992
2 00163  21.4170 334.1882 0000000   0.0000 282.8571 15.60780979000001
SAT_05_23
1 00164U 24001A   24001.00000000  .00000000  00000-0  00000-0 0  9993
2 00164  21.4170 334.1882 0000000   0.0000 295.7143 15.60780979000000
SAT_05_24
1 00165U 24001A   24001.00000000  .00000000  00000-0  00000-0 0  9994
2 00165  21.4170 334.1882 0000000   0.0000 308.5714 15.60780979000008
SAT_05_25
1 00166U 24001A   24001.00000000  .00000000  00000-0  00000-0 0  9995
2 00166  21.4170 334.1882 0000000   0.0000 321.4286 15.60780979000007
SAT_05_26
1 00167U 24001A   24001.00000000  .00000000  00000-0  00000-0 0  9996
2 00167  21.4170 334.1882 0000000   0.0000 334.2857 15.60780979000004
SAT_05_27
1 00168U 24001A   24001.00000000  .00000000  00000-0  00000-0 0  9997
2 00168  21.4170 334.1882 0000000   0.0000 347.1429 15.60780979000003
SAT_06_00
1 00169U 24001A   24001.00000000  .00000000  00000-0  00000-0 0  9998
2 00169  21.4170 257.0258 0000000   0.0000   0.0000 15.60780979000004
SAT_06_01
1 00170U 24001A   24001.00000000  .00000000  00000-0  00000-0 0  9990
2 00170  21.4170 257.0258 0000000   0.0000  12.8571 15.60780979000000
SAT_06_02
1 00171U 24001A   24001.00000000  .00000000  00000-0  00000-0 0  9991
2 00171  21.4170 257.0258 0000000   0.0000  25.7143 15.60780979000009
SAT_06_03
1 00172U 24001A   24001.00000000  .00000000  00000-0  00000-0 0  9992
2 00172  21.4170 257.0258 0000000   0.0000  38.5714 15.60780979000006
SAT_06_04
1 00173U 24001A   24001.00000000  .00000000  00000-0  00000-0 0  9993
2 00173  21.4170 257.0258 0000000   0.0000  51.4286 15.60780979000005
SAT_06_05
1 00174U 24001A   24001.00000000  .00000000  00000-0  00000-0 0  9994
2 00174  21.4170 257.0258 0000000   0.0000  64.2857 15.60780979000002
SAT_06_06
1 00175U 24001A   24001.00000000  .00000000  00000-0  00000-0 0  9995
2 00175  21.4170 257.0258 0000000   0.0000  77.1429 15.60780979000001
SAT_06_07
1 00176U 24001A   24001.00000000  .00000000  00000-0  00000-0 0  9996
2 00176  21.4170 257.0258 0000000   0.0000  90.0000 15.60780979000001
SAT_06_08
1 00177U 24001A   24001.00000000  .00000000  00000-0  00000-0 0  9997
2 00177  21.4170 257.0258 0000000   0.0000 102.8571 15.60780979000007
SAT_06_09
1 00178U 24001A   24001.00000000  .00000000  00000-0  00000-0 0  9998
2 00178  21.4170 257.0258 0000000   0.0000 115.7143 15.60780979000006
SAT_06_10
1 00179U 24001A   24001.00000000  .00000000  00000-0  00000-0 0  9999
2 00179  21.4170 257.0258 0000000   0.0000 128.5714 15.60780979000003
SAT_06_11
1 00180U 24001A   24001.00000000  .00000000  00000-0  00000-0 0  9991
2 00180  21.4170 257.0258 0000000   0.0000 141.4286 15.60780979000003
SAT_06_12
1 00181U 24001A   24001.00000000  .00000000  00000-0  00000-0 0  9992
2 00181  21.4170 257.0258 0000000   0.0000 154.2857 15.60780979000000
SAT_06_13
1 00182U 24001A   24001.00000000  .00000000  00000-0  00000-0 0  9993
2 00182  21.4170 257.0258 0000000   0.0000 167.1429 15.60780979000009
SAT_06_14
1 00183U 24001A   24001.00000000  .00000000  00000-0  00000-0 0  9994
2 00183  21.4170 257.0258 0000000   0.0000 180.0000 15.60780979000009
SAT_06_15
1 00184U 24001A   24001.00000000  .00000000  00000-0  00000-0 0  9995
2 00184  21.4170 257.0258 0000000   0.0000 192.8571 15.60780979000004
SAT_06_16
1 00185U 24001A   24001.00000000  .00000000  00000-0  00000-0 0  9996
2 00185  21.4170 257.0258 0000000   0.0000 205.7143 15.60780979000004
SAT_06_17
1 00186U 24001A   24001.00000000  .00000000  00000-0  00000-0 0  9997
2 00186  21.4170 257.0258 0000000   0.0000 218.5714 15.60780979000001
SAT_06_18
1 00187U 24001A   24001.00000000  .00000000  00000-0  00000-0 0  9998
2 00187  21.4170 257.0258 0000000   0.0000 231.4286 15.60780979000000
SAT_06_19
1 00188U 24001A   24001.00000000  .00000000  00000-0  00000-0 0  9999
2 00188  21.4170 257.0258 0000000   0.0000 244.2857 15.60780979000007
SAT_06_20
1 00189U 24001A   24001.00000000  .00000000  00000-0  00000-0 0  9990
2 00189  21.4170 257.0258 0000000   0.0000 257.1429 15.60780979000006
SAT_06_21
1 00190U 24001A   24001.00000000  .00000000  00000-0  00000-0 0  9992
2 00190  21.4170 257.0258 0000000   0.0000 270.0000 15.60780979000007
SAT_06_22
1 00191U 24001A   24001.00000000  .00000000  00000-0  00000-0 0  9993
2 00191  21.4170 257.0258 0000000   0.0000 282.8571 15.60780979000002
SAT_06_23
1 00192U 24001A   24001.00000000  .00000000  00000-0  00000-0 0  9994
2 00192  21.4170 257.0258 0000000   0.0000 295.7143 15.60780979000001
SAT_06_24
1 00193U 24001A   24001.00000000  .00000000  00000-0  00000-0 0  9995
2 00193  21.4170 257.0258 0000000   0.0000 308.5714 15.60780979000009
SAT_06_25
1 00194U 24001A   24001.00000000  .00000000  00000-0  00000-0 0  9996
2 00194  21.4170 257.0258 0000000   0.0000 321.4286 15.60780979000008
SAT_06_26
1 00195U 24001A   24001.00000000  .00000000  00000-0  00000-0 0  9997
2 00195  21.4170 257.0258 0000000   0.0000 334.2857 15.60780979000005
SAT_06_27
1 00196U 24001A   24001.00000000  .00000000  00000-0  00000-0 0  9998
2 00196  21.4170 257.0258 0000000   0.0000 347.1429 15.60780979000004
SAT_07_00
1 00197U 24001A   24001.00000000  .00000000  00000-0  00000-0 0  9999
2 00197  21.4170 179.8635 0000000   0.0000   0.0000 15.60780979000005
SAT_07_01
1 00198U 24001A   24001.00000000  .00000000  00000-0  00000-0 0  9990
2 00198  21.4170 179.8635 0000000   0.0000  12.8571 15.60780979000000
SAT_07_02
1 00199U 24001A   24001.00000000  .00000000  00000-0  00000-0 0  9991
2 00199  21.4170 179.8635 0000000   0.0000  25.7143 15.60780979000009
SAT_07_03
1 00200U 24001A   24001.00000000  .00000000  00000-0  00000-0 0  9994
2 00200  21.4170 179.8635 0000000   0.0000  38.5714 15.60780979000008
SAT_07_04
1 00201U 24001A   24001.00000000  .00000000  00000-0  00000-0 0  9995
2 00201  21.4170 179.8635 0000000   0.0000  51.4286 15.60780979000007
SAT_07_05
1 00202U 24001A   24001.00000000  .00000000  00000-0  00000-0 0  9996
2 00202  21.4170 179.8635 0000000   0.0000  64.2857 15.60780979000004
SAT_07_06
1 00203U 24001A   24001.00000000  .00000000  00000-0  00000-0 0  9997
2 00203  21.4170 179.8635 0000000   0.0000  77.1429 15.60780979000003
SAT_07_07
1 00204U 24001A   24001.00000000  .00000000  00000-0  00000-0 0  9998
2 00204  21.4170 179.8635 0000000   0.0000  90.0000 15.60780979000003
SAT_07_08
1 00205U 24001A   24001.00000000  .00000000  00000-0  00000-0 0  9999
2 00205  21.4170 179.8635 0000000   0.0000 102.8571 15.60780979000009
SAT_07_09
1 00206U 24001A   24001.00000000  .00000000  00000-0  00000-0 0  9990
2 00206  21.4170 179.8635 0000000   0.0000 115.7143 15.60780979000008
SAT_07_10
1 00207U 24001A   24001.00000000  .00000000  00000-0  00000-0 0  9991
2 00207  21.4170 179.8635 0000000   0.0000 128.5714 15.60780979000005
SAT_07_11
1 00208U 24001A   24001.00000000  .00000000  00000-0  00000-0 0  9992
2 00208  21.4170 179.8635 0000000   0.0000 141.4286 15.60780979000004
SAT_07_12
1 00209U 24001A   24001.00000000  .00000000  00000-0  00000-0 0  9993
2 00209  21.4170 179.8635 0000000   0.0000 154.2857 15.60780979000001
SAT_07_13
1 00210U 24001A   24001.00000000  .00000000  00000-0  00000-0 0  9995
2 00210  21.4170 179.8635 0000000   0.0000 167.1429 15.60780979000001
SAT_07_14
1 00211U 24001A   24001.00000000  .00000000  00000-0  00000-0 0  9996
2 00211  21.4170 179.8635 0000000   0.0000 180.0000 15.60780979000001
SAT_07_15
1 00212U 24001A   24001.00000000  .00000000  00000-0  00000-0 0  9997
2 00212  21.4170 179.8635 0000000   0.0000 192.8571 15.60780979000006
SAT_07_16
1 00213U 24001A   24001.00000000  .00000000  00000-0  00000-0 0  9998
2 00213  21.4170 179.8635 0000000   0.0000 205.7143 15.60780979000006
SAT_07_17
1 00214U 24001A   24001.00000000  .00000000  00000-0  00000-0 0  9999
2 00214  21.4170 179.8635 0000000   0.0000 218.5714 15.60780979000003
SAT_07_18
1 00215U 24001A   24001.00000000  .00000000  00000-0  00000-0 0  9990
2 00215  21.4170 179.8635 0000000   0.0000 231.4286 15.60780979000002
SAT_07_19
1 00216U 24001A   24001.00000000  .00000000  00000-0  00000-0 0  9991
2 00216  21.4170 179.8635 0000000   0.0000 244.2857 15.60780979000009
SAT_07_20
1 00217U 24001A   24001.00000000  .00000000  00000-0  00000-0 0  9992
2 00217  21.4170 179.8635 0000000   0.0000 257.1429 15.60780979000008
SAT_07_21
1 00218U 24001A   24001.00000000  .00000000  00000-0  00000-0 0  9993
2 00218  21.4170 179.8635 0000000   0.0000 270.0000 15.60780979000008
SAT_07_22
1 00219U 24001A   24001.00000000  .00000000  00000-0  00000-0 0  9994
2 00219  21.4170 179.8635 0000000   0.0000 282.8571 15.60780979000003
SAT_07_23
1 00220U 24001A   24001.00000000  .00000000  00000-0  00000-0 0  9996
2 00220  21.4170 179.8635 0000000   0.0000 295.7143 15.60780979000003
SAT_07_24
1 00221U 24001A   24001.00000000  .00000000  00000-0  00000-0 0  9997
2 00221  21.4170 179.8635 0000000   0.0000 308.5714 15.60780979000001
SAT_07_25
1 00222U 24001A   24001.00000000  .00000000  00000-0  00000-0 0  9998
2 00222  21.4170 179.8635 0000000   0.0000 321.4286 15.60780979000000
SAT_07_26
1 00223U 24001A   24001.00000000  .00000000  00000-0  00000-0 0  9999
2 00223  21.4170 179.8635 0000000   0.0000 334.2857 15.60780979000007
SAT_07_27
1 00224U 24001A   24001.00000000  .00000000  00000-0  00000-0 0  9990
2 00224  21.4170 179.8635 0000000   0.0000 347.1429 15.60780979000006
SAT_08_00
1 00225U 24001A   24001.00000000  .00000000  00000-0  00000-0 0  9991
2 00225  21.4170 102.7011 0000000   0.0000   0.0000 15.60780979000000
SAT_08_01
1 00226U 24001A   24001.00000000  .00000000  00000-0  00000-0 0  9992
2 00226  21.4170 102.7011 0000000   0.0000  12.8571 15.60780979000005
SAT_08_02
1 00227U 24001A   24001.00000000  .00000000  00000-0  00000-0 0  9993
2 00227  21.4170 102.7011 0000000   0.0000  25.7143 15.60780979000004
SAT_08_03
1 00228U 24001A   24001.00000000  .00000000  00000-0  00000-0 0  9994
2 00228  21.4170 102.7011 0000000   0.0000  38.5714 15.60780979000001
SAT_08_04
1 00229U 24001A   24001.00000000  .00000000  00000-0  00000-0 0  9995
2 00229  21.4170 102.7011 0000000   0.0000  51.4286 15.60780979000000
SAT_08_05
1 00230U 24001A   24001.00000000  .00000000  00000-0  00000-0 0  9997
2 00230  21.4170 102.7011 0000000   0.0000  64.2857 15.60780979000008
SAT_08_06
1 00231U 24001A   24001.00000000  .00000000  00000-0  00000-0 0  9998
2 00231  21.4170 102.7011 0000000   0.0000  77.1429 15.60780979000007
SAT_08_07
1 00232U 24001A   24001.00000000  .00000000  00000-0  00000-0 0  9999
2 00232  21.4170 102.7011 0000000   0.0000  90.0000 15.60780979000007
SAT_08_08
1 00233U 24001A   24001.00000000  .00000000  00000-0  00000-0 0  9990
2 00233  21.4170 102.7011 0000000   0.0000 102.8571 15.60780979000003
SAT_08_09
1 00234U 24001A   24001.00000000  .00000000  00000-0  00000-0 0  9991
2 00234  21.4170 102.7011 0000000   0.0000 115.7143 15.60780979000002
SAT_08_10
1 00235U 24001A   24001.00000000  .00000000  00000-0  00000-0 0  9992
2 00235  21.4170 102.7011 0000000   0.0000 128.5714 15.60780979000009
SAT_08_11
1 00236U 24001A   24001.00000000  .00000000  00000-0  00000-0 0  9993
2 00236  21.4170 102.7011 0000000   0.0000 141.4286 15.60780979000008
SAT_08_12
1 00237U 24001A   24001.00000000  .00000000  00000-0  00000-0 0  9994
2 00237  21.4170 102.7011 0000000   0.0000 154.2857 15.60780979000005
SAT_08_13
1 00238U 24001A   24001.00000000  .00000000  00000-0  00000-0 0  9995
2 00238  21.4170 102.7011 0000000   0.0000 167.1429 15.60780979000004
SAT_08_14
1 00239U 24001A   24001.00000000  .00000000  00000-0  00000-0 0  9996
2 00239  21.4170 102.7011 0000000   0.0000 180.0000 15.60780979000004
SAT_08_15
1 00240U 24001A   24001.00000000  .00000000  00000-0  00000-0 0  9998
2 00240  21.4170 102.7011 0000000   0.0000 192.8571 15.60780979000000
SAT_08_16
1 00241U 24001A   24001.00000000  .00000000  00000-0  00000-0 0  9999
2 00241  21.4170 102.7011 0000000   0.0000 205.7143 15.60780979000000
SAT_08_17
1 00242U 24001A   24001.00000000  .00000000  00000-0  00000-0 0  9990
2 00242  21.4170 102.7011 0000000   0.0000 218.5714 15.60780979000007
SAT_08_18
1 00243U 24001A   24001.00000000  .00000000  00000-0  00000-0 0  9991
2 00243  21.4170 102.7011 0000000   0.0000 231.4286 15.60780979000006
SAT_08_19
1 00244U 24001A   24001.00000000  .00000000  00000-0  00000-0 0  9992
2 00244  21.4170 102.7011 0000000   0.0000 244.2857 15.60780979000003
SAT_08_20
1 00245U 24001A   24001.00000000  .00000000  00000-0  00000-0 0  9993
2 00245  21.4170 102.7011 0000000   0.0000 257.1429 15.60780979000002
SAT_08_21
1 00246U 24001A   24001.00000000  .00000000  00000-0  00000-0 0  9994
2 00246  21.4170 102.7011 0000000   0.0000 270.0000 15.60780979000002
SAT_08_22
1 00247U 24001A   24001.00000000  .00000000  00000-0  00000-0 0  9995
2 00247  21.4170 102.7011 0000000   0.0000 282.8571 15.60780979000007
SAT_08_23
1 00248U 24001A   24001.00000000  .00000000  00000-0  00000-0 0  9996
2 00248  21.4170 102.7011 0000000   0.0000 295.7143 15.60780979000006
SAT_08_24
1 00249U 24001A   24001.00000000  .00000000  00000-0  00000-0 0  9997
2 00249  21.4170 102.7011 0000000   0.0000 308.5714 15.60780979000004
SAT_08_25
1 00250U 24001A   24001.00000000  .00000000  00000-0  00000-0 0  9999
2 00250  21.4170 102.7011 0000000   0.0000 321.4286 15.60780979000004
SAT_08_26
1 00251U 24001A   24001.00000000  .00000000  00000-0  00000-0 0  9990
2 00251  21.4170 102.7011 0000000   0.0000 334.2857 15.60780979000001
SAT_08_27
1 00252U 24001A   24001.00000000  .00000000  00000-0  00000-0 0  9991
2 00252  21.4170 102.7011 0000000   0.0000 347.1429 15.60780979000000
SAT_09_00
1 00253U 24001A   24001.00000000  .00000000  00000-0  00000-0 0  9992
2 00253  21.4170  25.5388 0000000   0.0000   0.0000 15.60780979000000
SAT_09_01
1 00254U 24001A   24001.00000000  .00000000  00000-0  00000-0 0  9993
2 00254  21.4170  25.5388 0000000   0.0000  12.8571 15.60780979000005
SAT_09_02
1 00255U 24001A   24001.00000000  .00000000  00000-0  00000-0 0  9994
2 00255  21.4170  25.5388 0000000   0.0000  25.7143 15.60780979000004
SAT_09_03
1 00256U 24001A   24001.00000000  .00000000  00000-0  00000-0 0  9995
2 00256  21.4170  25.5388 0000000   0.0000  38.5714 15.60780979000001
SAT_09_04
1 00257U 24001A   24001.00000000  .00000000  00000-0  00000-0 0  9996
2 00257  21.4170  25.5388 0000000   0.0000  51.4286 15.60780979000000
SAT_09_05
1 00258U 24001A   24001.00000000  .00000000  00000-0  00000-0 0  9997
2 00258  21.4170  25.5388 0000000   0.0000  64.2857 15.60780979000007
SAT_09_06
1 00259U 24001A   24001.00000000  .00000000  00000-0  00000-0 0  9998
2 00259  21.4170  25.5388 0000000   0.0000  77.1429 15.60780979000006
SAT_09_07
1 00260U 24001A   24001.00000000  .00000000  00000-0  00000-0 0  9990
2 00260  21.4170  25.5388 0000000   0.0000  90.0000 15.60780979000007
SAT_09_08
1 00261U 24001A   24001.00000000  .00000000  00000-0  00000-0 0  9991
2 00261  21.4170  25.5388 0000000   0.0000 102.8571 15.60780979000003
SAT_09_09
1 00262U 24001A   24001.00000000  .00000000  00000-0  00000-0 0  9992
2 00262  21.4170  25.5388 0000000   0.0000 115.7143 15.60780979000002
SAT_09_10
1 00263U 24001A   24001.00000000  .00000000  00000-0  00000-0 0  9993
2 00263  21.4170  25.5388 0000000   0.0000 128.5714 15.60780979000009
SAT_09_11
1 00264U 24001A   24001.00000000  .00000000  00000-0  00000-0 0  9994
2 00264  21.4170  25.5388 0000000   0.0000 141.4286 15.60780979000008
SAT_09_12
1 00265U 24001A   24001.00000000  .00000000  00000-0  00000-0 0  9995
2 00265  21.4170  25.5388 0000000   0.0000 154.2857 15.60780979000005
SAT_09_13
1 00266U 24001A   24001.00000000  .00000000  00000-0  00000-0 0  9996
2 00266  21.4170  25.5388 0000000   0.0000 167.1429 15.60780979000004
SAT_09_14
1 00267U 24001A   24001.00000000  .00000000  00000-0  00000-0 0  9997
2 00267  21.4170  25.5388 0000000   0.0000 180.0000 15.60780979000004
SAT_09_15
1 00268U 24001A   24001.00000000  .00000000  00000-0  00000-0 0  9998
2 00268  21.4170  25.5388 0000000   0.0000 192.8571 15.60780979000009
SAT_09_16
1 00269U 24001A   24001.00000000  .00000000  00000-0  00000-0 0  9999
2 00269  21.4170  25.5388 0000000   0.0000 205.7143 15.60780979000009
SAT_09_17
1 00270U 24001A   24001.00000000  .00000000  00000-0  00000-0 0  9991
2 00270  21.4170  25.5388 0000000   0.0000 218.5714 15.60780979000007
SAT_09_18
1 00271U 24001A   24001.00000000  .00000000  00000-0  00000-0 0  9992
2 00271  21.4170  25.5388 0000000   0.0000 231.4286 15.60780979000006
SAT_09_19
1 00272U 24001A   24001.00000000  .00000000  00000-0  00000-0 0  9993
2 00272  21.4170  25.5388 0000000   0.0000 244.2857 15.60780979000003
SAT_09_20
1 00273U 24001A   24001.00000000  .00000000  00000-0  00000-0 0  9994
2 00273  21.4170  25.5388 0000000   0.0000 257.1429 15.60780979000002
SAT_09_21
1 00274U 24001A   24001.00000000  .00000000  00000-0  00000-0 0  9995
2 00274  21.4170  25.5388 0000000   0.0000 270.0000 15.60780979000002
SAT_09_22
1 00275U 24001A   24001.00000000  .00000000  00000-0  00000-0 0  9996
2 00275  21.4170  25.5388 0000000   0.0000 282.8571 15.60780979000007
SAT_09_23
1 00276U 24001A   24001.00000000  .00000000  00000-0  00000-0 0  9997
2 00276  21.4170  25.5388 0000000   0.0000 295.7143 15.60780979000006
SAT_09_24
1 00277U 24001A   24001.00000000  .00000000  00000-0  00000-0 0  9998
2 00277  21.4170  25.5388 0000000   0.0000 308.5714 15.60780979000004
SAT_09_25
1 00278U 24001A   24001.00000000  .00000000  00000-0  00000-0 0  9999
2 00278  21.4170  25.5388 0000000   0.0000 321.4286 15.60780979000003
SAT_09_26
1 00279U 24001A   24001.00000000  .00000000  00000-0  00000-0 0  9990
2 00279  21.4170  25.5388 0000000   0.0000 334.2857 15.60780979000000
SAT_09_27
1 00280U 24001A   24001.00000000  .00000000  00000-0  00000-0 0  9992
2 00280  21.4170  25.5388 0000000   0.0000 347.1429 15.60780979000000
SAT_10_00
1 00281U 24001A   24001.00000000  .00000000  00000-0  00000-0 0  9993
2 00281  21.4170 308.3764 0000000   0.0000   0.0000 15.60780979000001
SAT_10_01
1 00282U 24001A   24001.00000000  .00000000  00000-0  00000-0 0  9994
2 00282  21.4170 308.3764 0000000   0.0000  12.8571 15.60780979000006
SAT_10_02
1 00283U 24001A   24001.00000000  .00000000  00000-0  00000-0 0  9995
2 00283  21.4170 308.3764 0000000   0.0000  25.7143 15.60780979000005
SAT_10_03
1 00284U 24001A   24001.00000000  .00000000  00000-0  00000-0 0  9996
2 00284  21.4170 308.3764 0000000   0.0000  38.5714 15.60780979000002
SAT_10_04
1 00285U 24001A   24001.00000000  .00000000  00000-0  00000-0 0  9997
2 00285  21.4170 308.3764 0000000   0.0000  51.4286 15.60780979000001
SAT_10_05
1 00286U 24001A   24001.00000000  .00000000  00000-0  00000-0 0  9998
2 00286  21.4170 308.3764 0000000   0.0000  64.2857 15.60780979000008
SAT_10_06
1 00287U 24001A   24001.00000000  .00000000  00000-0  00000-0 0  9999
2 00287  21.4170 308.3764 0000000   0.0000  77.1429 15.60780979000007
SAT_10_07
1 00288U 24001A   24001.00000000  .00000000  00000-0  00000-0 0  9990
2 00288  21.4170 308.3764 0000000   0.0000  90.0000 15.60780979000007
SAT_10_08
1 00289U 24001A   24001.00000000  .00000000  00000-0  00000-0 0  9991
2 00289  21.4170 308.3764 0000000   0.0000 102.8571 15.60780979000003
SAT_10_09
1 00290U 24001A   24001.00000000  .00000000  00000-0  00000-0 0  9993
2 00290  21.4170 308.3764 0000000   0.0000 115.7143 15.60780979000003
SAT_10_10
1 00291U 24001A   24001.00000000  .00000000  00000-0  00000-0 0  9994
2 00291  21.4170 308.3764 0000000   0.0000 128.5714 15.60780979000000
SAT_10_11
1 00292U 24001A   24001.00000000  .00000000  00000-0  00000-0 0  9995
2 00292  21.4170 308.3764 0000000   0.0000 141.4286 15.60780979000009
SAT_10_12
1 00293U 24001A   24001.00000000  .00000000  00000-0  00000-0 0  9996
2 00293  21.4170 308.3764 0000000   0.0000 154.2857 15.60780979000006
SAT_10_13
1 00294U 24001A   24001.00000000  .00000000  00000-0  00000-0 0  9997
2 00294  21.4170 308.3764 0000000   0.0000 167.1429 15.60780979000005
SAT_10_14
1 00295U 24001A   24001.00000000  .00000000  00000-0  00000-0 0  9998
2 00295  21.4170 308.3764 0000000   0.0000 180.0000 15.60780979000005
SAT_10_15
1 00296U 24001A   24001.00000000  .00000000  00000-0  00000-0 0  9999
2 00296  21.4170 308.3764 0000000   0.0000 192.8571 15.60780979000000
SAT_10_16
1 00297U 24001A   24001.00000000  .00000000  00000-0  00000-0 0  9990
2 00297  21.4170 308.3764 0000000   0.0000 205.7143 15.60780979000000
SAT_10_17
1 00298U 24001A   24001.00000000  .00000000  00000-0  00000-0 0  9991
2 00298  21.4170 308.3764 0000000   0.0000 218.5714 15.60780979000007
SAT_10_18
1 00299U 24001A   24001.00000000  .00000000  00000-0  00000-0 0  9992
2 00299  21.4170 308.3764 0000000   0.0000 231.4286 15.60780979000006
SAT_10_19
1 00300U 24001A   24001.00000000  .00000000  00000-0  00000-0 0  9995
2 00300  21.4170 308.3764 0000000   0.0000 244.2857 15.60780979000005
SAT_10_20
1 00301U 24001A   24001.00000000  .00000000  00000-0  00000-0 0  9996
2 00301  21.4170 308.3764 0000000   0.0000 257.1429 15.60780979000004
SAT_10_21
1 00302U 24001A   24001.00000000  .00000000  00000-0  00000-0 0  9997
2 00302  21.4170 308.3764 0000000   0.0000 270.0000 15.60780979000004
SAT_10_22
1 00303U 24001A   24001.00000000  .00000000  00000-0  00000-0 0  9998
2 00303  21.4170 308.3764 0000000   0.0000 282.8571 15.60780979000009
SAT_10_23
1 00304U 24001A   24001.00000000  .00000000  00000-0  00000-0 0  9999
2 00304  21.4170 308.3764 0000000   0.0000 295.7143 15.60780979000008
SAT_10_24
1 00305U 24001A   24001.00000000  .00000000  00000-0  00000-0 0  9990
2 00305  21.4170 308.3764 0000000   0.0000 308.5714 15.60780979000006
SAT_10_25
1 00306U 24001A   24001.00000000  .00000000  00000-0  00000-0 0  9991
2 00306  21.4170 308.3764 0000000   0.0000 321.4286 15.60780979000005
SAT_10_26
1 00307U 24001A   24001.00000000  .00000000  00000-0  00000-0 0  9992
2 00307  21.4170 308.3764 0000000   0.0000 334.2857 15.60780979000002
SAT_10_27
1 00308U 24001A   24001.00000000  .00000000  00000-0  00000-0 0  9993
2 00308  21.4170 308.3764 0000000   0.0000 347.1429 15.60780979000001
SAT_11_00
1 00309U 24001A   24001.00000000  .00000000  00000-0  00000-0 0  9994
2 00309  21.4170 231.2140 0000000   0.0000   0.0000 15.60780979000004
SAT_11_01
1 00310U 24001A   24001.00000000  .00000000  00000-0  00000-0 0  9996
2 00310  21.4170 231.2140 0000000   0.0000  12.8571 15.60780979000000
SAT_11_02
1 00311U 24001A   24001.00000000  .00000000  00000-0  00000-0 0  9997
2 00311  21.4170 231.2140 0000000   0.0000  25.7143 15.60780979000009
SAT_11_03
1 00312U 24001A   24001.00000000  .00000000  00000-0  00000-0 0  9998
2 00312  21.4170 231.2140 0000000   0.0000  38.5714 15.60780979000006
SAT_11_04
1 00313U 24001A   24001.00000000  .00000000  00000-0  00000-0 0  9999
2 00313  21.4170 231.2140 0000000   0.0000  51.4286 15.60780979000005
SAT_11_05
1 00314U 24001A   24001.00000000  .00000000  00000-0  00000-0 0  9990
2 00314  21.4170 231.2140 0000000   0.0000  64.2857 15.60780979000002
SAT_11_06
1 00315U 24001A   24001.00000000  .00000000  00000-0  00000-0 0  9991
2 00315  21.4170 231.2140 0000000   0.0000  77.1429 15.60780979000001
SAT_11_07
1 00316U 24001A   24001.00000000  .00000000  00000-0  00000-0 0  9992
2 00316  21.4170 231.2140 0000000   0.0000  90.0000 15.60780979000001
SAT_11_08
1 00317U 24001A   24001.00000000  .00000000  00000-0  00000-0 0  9993
2 00317  21.4170 231.2140 0000000   0.0000 102.8571 15.60780979000007
SAT_11_09
1 00318U 24001A   24001.00000000  .00000000  00000-0  00000-0 0  9994
2 00318  21.4170 231.2140 0000000   0.0000 115.7143 15.60780979000006
SAT_11_10
1 00319U 24001A   24001.00000000  .00000000  00000-0  00000-0 0  9995
2 00319  21.4170 231.2140 0000000   0.0000 128.5714 15.60780979000003
SAT_11_11
1 00320U 24001A   24001.00000000  .00000000  00000-0  00000-0 0  9997
2 00320  21.4170 231.2140 0000000   0.0000 141.4286 15.60780979000003
SAT_11_12
1 00321U 24001A   24001.00000000  .00000000  00000-0  00000-0 0  9998
2 00321  21.4170 231.2140 0000000   0.0000 154.2857 15.60780979000000
SAT_11_13
1 00322U 24001A   24001.00000000  .00000000  00000-0  00000-0 0  9999
2 00322  21.4170 231.2140 0000000   0.0000 167.1429 15.60780979000009
SAT_11_14
1 00323U 24001A   24001.00000000  .00000000  00000-0  00000-0 0  9990
2 00323  21.4170 231.2140 0000000   0.0000 180.0000 15.60780979000009
SAT_11_15
1 00324U 24001A   24001.00000000  .00000000  00000-0  00000-0 0  9991
2 00324  21.4170 231.2140 0000000   0.0000 192.8571 15.60780979000004
SAT_11_16
1 00325U 24001A   24001.00000000  .00000000  00000-0  00000-0 0  9992
2 00325  21.4170 231.2140 0000000   0.0000 205.7143 15.60780979000004
SAT_11_17
1 00326U 24001A   24001.00000000  .00000000  00000-0  00000-0 0  9993
2 00326  21.4170 231.2140 0000000   0.0000 218.5714 15.60780979000001
SAT_11_18
1 00327U 24001A   24001.00000000  .00000000  00000-0  00000-0 0  9994
2 00327  21.4170 231.2140 0000000   0.0000 231.4286 15.60780979000000
SAT_11_19
1 00328U 24001A   24001.00000000  .00000000  00000-0  00000-0 0  9995
2 00328  21.4170 231.2140 0000000   0.0000 244.2857 15.60780979000007
SAT_11_20
1 00329U 24001A   24001.00000000  .00000000  00000-0  00000-0 0  9996
2 00329  21.4170 231.2140 0000000   0.0000 257.1429 15.60780979000006
SAT_11_21
1 00330U 24001A   24001.00000000  .00000000  00000-0  00000-0 0  9998
2 00330  21.4170 231.2140 0000000   0.0000 270.0000 15.60780979000007
SAT_11_22
1 00331U 24001A   24001.00000000  .00000000  00000-0  00000-0 0  9999
2 00331  21.4170 231.2140 0000000   0.0000 282.8571 15.60780979000002
SAT_11_23
1 00332U 24001A   24001.00000000  .00000000  00000-0  00000-0 0  9990
2 00332  21.4170 231.2140 0000000   0.0000 295.7143 15.60780979000001
SAT_11_24
1 00333U 24001A   24001.00000000  .00000000  00000-0  00000-0 0  9991
2 00333  21.4170 231.2140 0000000   0.0000 308.5714 15.60780979000009
SAT_11_25
1 00334U 24001A   24001.00000000  .00000000  00000-0  00000-0 0  9992
2 00334  21.4170 231.2140 0000000   0.0000 321.4286 15.60780979000008
SAT_11_26
1 00335U 24001A   24001.00000000  .00000000  00000-0  00000-0 0  9993
2 00335  21.4170 231.2140 0000000   0.0000 334.2857 15.60780979000005
SAT_11_27
1 00336U 24001A   24001.00000000  .00000000  00000-0  00000-0 0  9994
2 00336  21.4170 231.2140 0000000   0.0000 347.1429 15.60780979000004
SAT_12_00
1 00337U 24001A   24001.00000000  .00000000  00000-0  00000-0 0  9995
2 00337  21.4170 154.0517 0000000   0.0000   0.0000 15.60780979000005
SAT_12_01
1 00338U 24001A   24001.00000000  .00000000  00000-0  00000-0 0  9996
2 00338  21.4170 154.0517 0000000   0.0000  12.8571 15.60780979000000
SAT_12_02
1 00339U 24001A   24001.00000000  .00000000  00000-0  00000-0 0  9997
2 00339  21.4170 154.0517 0000000   0.0000  25.7143 15.60780979000009
SAT_12_03
1 00340U 24001A   24001.00000000  .00000000  00000-0  00000-0 0  9999
2 00340  21.4170 154.0517 0000000   0.0000  38.5714 15.60780979000007
SAT_12_04
1 00341U 24001A   24001.00000000  .00000000  00000-0  00000-0 0  9990
2 00341  21.4170 154.0517 0000000   0.0000  51.4286 15.60780979000006
SAT_12_05
1 00342U 24001A   24001.00000000  .00000000  00000-0  00000-0 0  9991
2 00342  21.4170 154.0517 0000000   0.0000  64.2857 15.60780979000003
SAT_12_06
1 00343U 24001A   24001.00000000  .00000000  00000-0  00000-0 0  9992
2 00343  21.4170 154.0517 0000000   0.0000  77.1429 15.60780979000002
SAT_12_07
1 00344U 24001A   24001.00000000  .00000000  00000-0  00000-0 0  9993
2 00344  21.4170 154.0517 0000000   0.0000  90.0000 15.60780979000002
SAT_12_08
1 00345U 24001A   24001.00000000  .00000000  00000-0  00000-0 0  9994
2 00345  21.4170 154.0517 0000000   0.0000 102.8571 15.60780979000008
SAT_12_09
1 00346U 24001A   24001.00000000  .00000000  00000-0  00000-0 0  9995
2 00346  21.4170 154.0517 0000000   0.0000 115.7143 15.60780979000007
SAT_12_10
1 00347U 24001A   24001.00000000  .00000000  00000-0  00000-0 0  9996
2 00347  21.4170 154.0517 0000000   0.0000 128.5714 15.60780979000004
SAT_12_11
1 00348U 24001A   24001.00000000  .00000000  00000-0  00000-0 0  9997
2 00348  21.4170 154.0517 0000000   0.0000 141.4286 15.60780979000003
SAT_12_12
1 00349U 24001A   24001.00000000  .00000000  00000-0  00000-0 0  9998
2 00349  21.4170 154.0517 0000000   0.0000 154.2857 15.60780979000000
SAT_12_13
1 00350U 24001A   24001.00000000  .00000000  00000-0  00000-0 0  9990
2 00350  21.4170 154.0517 0000000   0.0000 167.1429 15.60780979000000
SAT_12_14
1 00351U 24001A   24001.00000000  .00000000  00000-0  00000-0 0  9991
2 00351  21.4170 154.0517 0000000   0.0000 180.0000 15.60780979000000
SAT_12_15
1 00352U 24001A   24001.00000000  .00000000  00000-0  00000-0 0  9992
2 00352  21.4170 154.0517 0000000   0.0000 192.8571 15.60780979000005
SAT_12_16
1 00353U 24001A   24001.00000000  .00000000  00000-0  00000-0 0  9993
2 00353  21.4170 154.0517 0000000   0.0000 205.7143 15.60780979000005
SAT_12_17
1 00354U 24001A   24001.00000000  .00000000  00000-0  00000-0 0  9994
2 00354  21.4170 154.0517 0000000   0.0000 218.5714 15.60780979000002
SAT_12_18
1 00355U 24001A   24001.00000000  .00000000  00000-0  00000-0 0  9995
2 00355  21.4170 154.0517 0000000   0.0000 231.4286 15.60780979000001
SAT_12_19
1 00356U 24001A   24001.00000000  .00000000  00000-0  00000-0 0  9996
2 00356  21.4170 154.0517 0000000   0.0000 244.2857 15.60780979000008
SAT_12_20
1 00357U 24001A   24001.00000000  .00000000  00000-0  00000-0 0  9997
2 00357  21.4170 154.0517 0000000   0.0000 257.1429 15.60780979000007
SAT_12_21
1 00358U 24001A   24001.00000000  .00000000  00000-0  00000-0 0  9998
2 00358  21.4170 154.0517 0000000   0.0000 270.0000 15.60780979000007
SAT_12_22
1 00359U 24001A   24001.00000000  .00000000  00000-0  00000-0 0  9999
2 00359  21.4170 154.0517 0000000   0.0000 282.8571 15.60780979000002
SAT_12_23
1 00360U 24001A   24001.00000000  .00000000  00000-0  00000-0 0  9991
2 00360  21.4170 154.0517 0000000   0.0000 295.7143 15.60780979000002
SAT_12_24
1 00361U 24001A   24001.00000000  .00000000  00000-0  00000-0 0  9992
2 00361  21.4170 154.0517 0000000   0.0000 308.5714 15.60780979000000
SAT_12_25
1 00362U 24001A   24001.00000000  .00000000  00000-0  00000-0 0  9993
2 00362  21.4170 154.0517 0000000   0.0000 321.4286 15.60780979000009
SAT_12_26
1 00363U 24001A   24001.00000000  .00000000  00000-0  00000-0 0  9994
2 00363  21.4170 154.0517 0000000   0.0000 334.2857 15.60780979000006
SAT_12_27
1 00364U 24001A   24001.00000000  .00000000  00000-0  00000-0 0  9995
2 00364  21.4170 154.0517 0000000   0.0000 347.1429 15.60780979000005
SAT_13_00
1 00365U 24001A   24001.00000000  .00000000  00000-0  00000-0 0  9996
2 00365  21.4170  76.8893 0000000   0.0000   0.0000 15.60780979000004
SAT_13_01
1 00366U 24001A   24001.00000000  .00000000  00000-0  00000-0 0  9997
2 00366  21.4170  76.8893 0000000   0.0000  12.8571 15.60780979000009
SAT_13_02
1 00367U 24001A   24001.00000000  .00000000  00000-0  00000-0 0  9998
2 00367  21.4170  76.8893 0000000   0.0000  25.7143 15.60780979000008
SAT_13_03
1 00368U 24001A   24001.00000000  .00000000  00000-0  00000-0 0  9999
2 00368  21.4170  76.8893 0000000   0.0000  38.5714 15.60780979000005
SAT_13_04
1 00369U 24001A   24001.00000000  .00000000  00000-0  00000-0 0  9990
2 00369  21.4170  76.8893 0000000   0.0000  51.4286 15.60780979000004
SAT_13_05
1 00370U 24001A   24001.00000000  .00000000  00000-0  00000-0 0  9992
2 00370  21.4170  76.8893 0000000   0.0000  64.2857 15.60780979000002
SAT_13_06
1 00371U 24001A   24001.00000000  .00000000  00000-0  00000-0 0  9993
2 00371  21.4170  76.8893 0000000   0.0000  77.1429 15.60780979000001
SAT_13_07
1 00372U 24001A   24001.00000000  .00000000  00000-0  00000-0 0  9994
2 00372  21.4170  76.8893 0000000   0.0000  90.0000 15.60780979000001
SAT_13_08
1 00373U 24001A   24001.00000000  .00000000  00000-0  00000-0 0  9995
2 00373  21.4170  76.8893 0000000   0.0000 102.8571 15.60780979000007
SAT_13_09
1 00374U 24001A   24001.00000000  .00000000  00000-0  00000-0 0  9996
2 00374  21.4170  76.8893 0000000   0.0000 115.7143 15.60780979000006
SAT_13_10
1 00375U 24001A   24001.00000000  .00000000  00000-0  00000-0 0  9997
2 00375  21.4170  76.8893 0000000   0.0000 128.5714 15.60780979000003
SAT_13_11
1 00376U 24001A   24001.00000000  .00000000  00000-0  00000-0 0  9998
2 00376  21.4170  76.8893 0000000   0.0000 141.4286 15.60780979000002
SAT_13_12
1 00377U 24001A   24001.00000000  .00000000  00000-0  00000-0 0  9999
2 00377  21.4170  76.8893 0000000   0.0000 154.2857 15.60780979000009
SAT_13_13
1 00378U 24001A   24001.00000000  .00000000  00000-0  00000-0 0  9990
2 00378  21.4170  76.8893 0000000   0.0000 167.1429 15.60780979000008
SAT_13_14
1 00379U 24001A   24001.00000000  .00000000  00000-0  00000-0 0  9991
2 00379  21.4170  76.8893 0000000   0.0000 180.0000 15.60780979000008
SAT_13_15
1 00380U 24001A   24001.00000000  .00000000  00000-0  00000-0 0  9993
2 00380  21.4170  76.8893 0000000   0.0000 192.8571 15.60780979000004
SAT_13_16
1 00381U 24001A   24001.00000000  .00000000  00000-0  00000-0 0  9994
2 00381  21.4170  76.8893 0000000   0.0000 205.7143 15.60780979000004
SAT_13_17
1 00382U 24001A   24001.00000000  .00000000  00000-0  00000-0 0  9995
2 00382  21.4170  76.8893 0000000   0.0000 218.5714 15.60780979000001
SAT_13_18
1 00383U 24001A   24001.00000000  .00000000  00000-0  00000-0 0  9996
2 00383  21.4170  76.8893 0000000   0.0000 231.4286 15.60780979000000
SAT_13_19
1 00384U 24001A   24001.00000000  .00000000  00000-0  00000-0 0  9997
2 00384  21.4170  76.8893 0000000   0.0000 244.2857 15.60780979000007
SAT_13_20
1 00385U 24001A   24001.00000000  .00000000  00000-0  00000-0 0  9998
2 00385  21.4170  76.8893 0000000   0.0000 257.1429 15.60780979000006
SAT_13_21
1 00386U 24001A   24001.00000000  .00000000  00000-0  00000-0 0  9999
2 00386  21.4170  76.8893 0000000   0.0000 270.0000 15.60780979000006
SAT_13_22
1 00387U 24001A   24001.00000000  .00000000  00000-0  00000-0 0  9990
2 00387  21.4170  76.8893 0000000   0.0000 282.8571 15.60780979000001
SAT_13_23
1 00388U 24001A   24001.00000000  .00000000  00000-0  00000-0 0  9991
2 00388  21.4170  76.8893 0000000   0.0000 295.7143 15.60780979000000
SAT_13_24
1 00389U 24001A   24001.00000000  .00000000  00000-0  00000-0 0  9992
2 00389  21.4170  76.8893 0000000   0.0000 308.5714 15.60780979000008
SAT_13_25
1 00390U 24001A   24001.00000000  .00000000  00000-0  00000-0 0  9994
2 00390  21.4170  76.8893 0000000   0.0000 321.4286 15.60780979000008
SAT_13_26
1 00391U 24001A   24001.00000000  .00000000  00000-0  00000-0 0  9995
2 00391  21.4170  76.8893 0000000   0.0000 334.2857 15.60780979000005
SAT_13_27
1 00392U 24001A   24001.00000000  .00000000  00000-0  00000-0 0  9996
2 00392  21.4170  76.8893 0000000   0.0000 347.1429 15.60780979000004
SAT_14_00
1 00393U 24001A   24001.00000000  .00000000  00000-0  00000-0 0  9997
2 00393  21.4170 359.7270 0000000   0.0000   0.0000 15.60780979000007
SAT_14_01
1 00394U 24001A   24001.00000000  .00000000  00000-0  00000-0 0  9998
2 00394  21.4170 359.7270 0000000   0.0000  12.8571 15.60780979000002
SAT_14_02
1 00395U 24001A   24001.00000000  .00000000  00000-0  00000-0 0  9999
2 00395  21.4170 359.7270 0000000   0.0000  25.7143 15.60780979000001
SAT_14_03
1 00396U 24001A   24001.00000000  .00000000  00000-0  00000-0 0  9990
2 00396  21.4170 359.7270 0000000   0.0000  38.5714 15.60780979000008
SAT_14_04
1 00397U 24001A   24001.00000000  .00000000  00000-0  00000-0 0  9991
2 00397  21.4170 359.7270 0000000   0.0000  51.4286 15.60780979000007
SAT_14_05
1 00398U 24001A   24001.00000000  .00000000  00000-0  00000-0 0  9992
2 00398  21.4170 359.7270 0000000   0.0000  64.2857 15.60780979000004
SAT_14_06
1 00399U 24001A   24001.00000000  .00000000  00000-0  00000-0 0  9993
2 00399  21.4170 359.7270 0000000   0.0000  77.1429 15.60780979000003
SAT_14_07
1 00400U 24001A   24001.00000000  .00000000  00000-0  00000-0 0  9996
2 00400  21.4170 359.7270 0000000   0.0000  90.0000 15.60780979000005
SAT_14_08
1 00401U 24001A   24001.00000000  .00000000  00000-0  00000-0 0  9997
2 00401  21.4170 359.7270 0000000   0.0000 102.8571 15.60780979000001
SAT_14_09
1 00402U 24001A   24001.00000000  .00000000  00000-0  00000-0 0  9998
2 00402  21.4170 359.7270 0000000   0.0000 115.7143 15.60780979000000
SAT_14_10
1 00403U 24001A   24001.00000000  .00000000  00000-0  00000-0 0  9999
2 00403  21.4170 359.7270 0000000   0.0000 128.5714 15.60780979000007
SAT_14_11
1 00404U 24001A   24001.00000000  .00000000  00000-0  00000-0 0  9990
2 00404  21.4170 359.7270 0000000   0.0000 141.4286 15.60780979000006
SAT_14_12
1 00405U 24001A   24001.00000000  .00000000  00000-0  00000-0 0  9991
2 00405  21.4170 359.7270 0000000   0.0000 154.2857 15.60780979000003
SAT_14_13
1 00406U 24001A   24001.00000000  .00000000  00000-0  00000-0 0  9992
2 00406  21.4170 359.7270 0000000   0.0000 167.1429 15.60780979000002
SAT_14_14
1 00407U 24001A   24001.00000000  .00000000  00000-0  00000-0 0  9993
2 00407  21.4170 359.7270 0000000   0.0000 180.0000 15.60780979000002
SAT_14_15
1 00408U 24001A   24001.00000000  .00000000  00000-0  00000-0 0  9994
2 00408  21.4170 359.7270 0000000   0.0000 192.8571 15.60780979000007
SAT_14_16
1 00409U 24001A   24001.00000000  .00000000  00000-0  00000-0 0  9995
2 00409  21.4170 359.7270 0000000   0.0000 205.7143 15.60780979000007
SAT_14_17
1 00410U 24001A   24001.00000000  .00000000  00000-0  00000-0 0  9997
2 00410  21.4170 359.7270 0000000   0.0000 218.5714 15.60780979000005
SAT_14_18
1 00411U 24001A   24001.00000000  .00000000  00000-0  00000-0 0  9998
2 00411  21.4170 359.7270 0000000   0.0000 231.4286 15.60780979000004
SAT_14_19
1 00412U 24001A   24001.00000000  .00000000  00000-0  00000-0 0  9999
2 00412  21.4170 359.7270 0000000   0.0000 244.2857 15.60780979000001
SAT_14_20
1 00413U 24001A   24001.00000000  .00000000  00000-0  00000-0 0  9990
2 00413  21.4170 359.7270 0000000   0.0000 257.1429 15.60780979000000
SAT_14_21
1 00414U 24001A   24001.00000000  .00000000  00000-0  00000-0 0  9991
2 00414  21.4170 359.7270 0000000   0.0000 270.0000 15.60780979000000
SAT_14_22
1 00415U 24001A   24001.00000000  .00000000  00000-0  00000-0 0  9992
2 00415  21.4170 359.7270 0000000   0.0000 282.8571 15.60780979000005
SAT_14_23
1 00416U 24001A   24001.00000000  .00000000  00000-0  00000-0 0  9993
2 00416  21.4170 359.7270 0000000   0.0000 295.7143 15.60780979000004
SAT_14_24
1 00417U 24001A   24001.00000000  .00000000  00000-0  00000-0 0  9994
2 00417  21.4170 359.7270 0000000   0.0000 308.5714 15.60780979000002
SAT_14_25
1 00418U 24001A   24001.00000000  .00000000  00000-0  00000-0 0  9995
2 00418  21.4170 359.7270 0000000   0.0000 321.4286 15.60780979000001
SAT_14_26
1 00419U 24001A   24001.00000000  .00000000  00000-0  00000-0 0  9996
2 00419  21.4170 359.7270 0000000   0.0000 334.2857 15.60780979000008
SAT_14_27
1 00420U 24001A   24001.00000000  .00000000  00000-0  00000-0 0  9998
2 00420  21.4170 359.7270 0000000   0.0000 347.1429 15.60780979000008