SAT_00_00
1 00001U 24001A   24001.00000000  .00000000  00000-0  00000-0 0  9993
2 00001  20.3026 345.4225 0000000   0.0000   0.0000 13.72583078000005
SAT_00_01
1 00002U 24001A   24001.00000000  .00000000  00000-0  00000-0 0  9994
2 00002  20.3026 345.4225 0000000   0.0000  90.0000 13.72583078000005
SAT_00_02
1 00003U 24001A   24001.00000000  .00000000  00000-0  00000-0 0  9995
2 00003  20.3026 345.4225 0000000   0.0000 180.0000 13.72583078000006
SAT_00_03
1 00004U 24001A   24001.00000000  .00000000  00000-0  00000-0 0  9996
2 00004  20.3026 345.4225 0000000   0.0000 270.0000 13.72583078000007
SAT_01_00
1 00005U 24001A   24001.00000000  .00000000  00000-0  00000-0 0  9997
2 00005  20.3026  75.4225 0000000   0.0000   6.0000 13.72583078000005
SAT_01_01
1 00006U 24001A   24001.00000000  .00000000  00000-0  00000-0 0  9998
2 00006  20.3026  75.4225 0000000   0.0000  96.0000 13.72583078000005
SAT_01_02
1 00007U 24001A   24001.00000000  .00000000  00000-0  00000-0 0  9999
2 00007  20.3026  75.4225 0000000   0.0000 186.0000 13.72583078000006
SAT_01_03
1 00008U 24001A   24001.00000000  .00000000  00000-0  00000-0 0  9990
2 00008  20.3026  75.4225 0000000   0.0000 276.0000 13.72583078000007
SAT_02_00
1 00009U 24001A   24001.00000000  .00000000  00000-0  00000-0 0  9991
2 00009  20.3026 165.4225 0000000   0.0000  12.0000 13.72583078000006
SAT_02_01
1 00010U 24001A   24001.00000000  .00000000  00000-0  00000-0 0  9993
2 00010  20.3026 165.4225 0000000   0.0000 102.0000 13.72583078000008
SAT_02_02
1 00011U 24001A   24001.00000000  .00000000  00000-0  00000-0 0  9994
2 00011  20.3026 165.4225 0000000   0.0000 192.0000 13.72583078000008
SAT_02_03
1 00012U 24001A   24001.00000000  .00000000  00000-0  00000-0 0  9995
2 00012  20.3026 165.4225 0000000   0.0000 282.0000 13.72583078000009
SAT_03_00
1 00013U 24001A   24001.00000000  .00000000  00000-0  00000-0 0  9996
2 00013  20.3026 255.4225 0000000   0.0000  18.0000 13.72583078000007
SAT_03_01
1 00014U 24001A   24001.00000000  .00000000  00000-0  00000-0 0  9997
2 00014  20.3026 255.4225 0000000   0.0000 108.0000 13.72583078000008
SAT_03_02
1 00015U 24001A   24001.00000000  .00000000  00000-0  00000-0 0  9998
2 00015  20.3026 255.4225 0000000   0.0000 198.0000 13.72583078000008
SAT_03_03
1 00016U 24001A   24001.00000000  .00000000  00000-0  00000-0 0  9999
2 00016  20.3026 255.4225 0000000   0.0000 288.0000 13.72583078000009
SAT_04_00
1 00017U 24001A   24001.00000000  .00000000  00000-0  00000-0 0  9990
2 00017  20.3026 345.4225 0000000   0.0000  24.0000 13.72583078000008
SAT_04_01
1 00018U 24001A   24001.00000000  .00000000  00000-0  00000-0 0  9991
2 00018  20.3026 345.4225 0000000   0.0000 114.0000 13.72583078000009
SAT_04_02
1 00019U 24001A   24001.00000000  .00000000  00000-0  00000-0 0  9992
2 00019  20.3026 345.4225 0000000   0.0000 204.0000 13.72583078000000
SAT_04_03
1 00020U 24001A   24001.00000000  .00000000  00000-0  00000-0 0  9994
2 00020  20.3026 345.4225 0000000   0.0000 294.0000 13.72583078000001
SAT_05_00
1 00021U 24001A   24001.00000000  .00000000  00000-0  00000-0 0  9995
2 00021  20.3026  75.4225 0000000   0.0000  30.0000 13.72583078000000
SAT_05_01
1 00022U 24001A   24001.00000000  .00000000  00000-0  00000-0 0  9996
2 00022  20.3026  75.4225 0000000   0.0000 120.0000 13.72583078000001
SAT_05_02
1 00023U 24001A   24001.00000000  .00000000  00000-0  00000-0 0  9997
2 00023  20.3026  75.4225 0000000   0.0000 210.0000 13.72583078000002
SAT_05_03
1 00024U 24001A   24001.00000000  .00000000  00000-0  00000-0 0  9998
2 00024  20.3026  75.4225 0000000   0.0000 300.0000 13.72583078000003
SAT_06_00
1 00025U 24001A   24001.00000000  .00000000  00000-0  00000-0 0  9999
2 00025  20.3026 165.4225 0000000   0.0000  36.0000 13.72583078000000
SAT_06_01
1 00026U 24001A   24001.00000000  .00000000  00000-0  00000-0 0  9990
2 00026  20.3026 165.4225 0000000   0.0000 126.0000 13.72583078000001
SAT_06_02
1 00027U 24001A   24001.00000000  .00000000  00000-0  00000-0 0  9991
2 00027  20.3026 165.4225 0000000   0.0000 216.0000 13.72583078000002
SAT_06_03
1 00028U 24001A   24001.00000000  .00000000  00000-0  00000-0 0  9992
2 00028  20.3026 165.4225 0000000   0.0000 306.0000 13.72583078000003
SAT_07_00
1 00029U 24001A   24001.00000000  .00000000  00000-0  00000-0 0  9993
2 00029  20.3026 255.4225 0000000   0.0000  42.0000 13.72583078000001
SAT_07_01
1 00030U 24001A   24001.00000000  .00000000  00000-0  00000-0 0  9995
2 00030  20.3026 255.4225 0000000   0.0000 132.0000 13.72583078000003
SAT_07_02
1 00031U 24001A   24001.00000000  .00000000  00000-0  00000-0 0  9996
2 00031  20.3026 255.4225 0000000   0.0000 222.0000 13.72583078000004
SAT_07_03
1 00032U 24001A   24001.00000000  .00000000  00000-0  00000-0 0  9997
2 00032  20.3026 255.4225 0000000   0.0000 312.0000 13.72583078000005
SAT_08_00
1 00033U 24001A   24001.00000000  .00000000  00000-0  00000-0 0  9998
2 00033  20.3026 345.4225 0000000   0.0000  48.0000 13.72583078000002
SAT_08_01
1 00034U 24001A   24001.00000000  .00000000  00000-0  00000-0 0  9999
2 00034  20.3026 345.4225 0000000   0.0000 138.0000 13.72583078000003
SAT_08_02
1 00035U 24001A   24001.00000000  .00000000  00000-0  00000-0 0  9990
2 00035  20.3026 345.4225 0000000   0.0000 228.0000 13.72583078000004
SAT_08_03
1 00036U 24001A   24001.00000000  .00000000  00000-0  00000-0 0  9991
2 00036  20.3026 345.4225 0000000   0.0000 318.0000 13.72583078000005
SAT_09_00
1 00037U 24001A   24001.00000000  .00000000  00000-0  00000-0 0  9992
2 00037  20.3026  75.4225 0000000   0.0000  54.0000 13.72583078000003
SAT_09_01
1 00038U 24001A   24001.00000000  .00000000  00000-0  00000-0 0  9993
2 00038  20.3026  75.4225 0000000   0.0000 144.0000 13.72583078000004
SAT_09_02
1 00039U 24001A   24001.00000000  .00000000  00000-0  00000-0 0  9994
2 00039  20.3026  75.4225 0000000   0.0000 234.0000 13.72583078000005
SAT_09_03
1 00040U 24001A   24001.00000000  .00000000  00000-0  00000-0 0  9996
2 00040  20.3026  75.4225 0000000   0.0000 324.0000 13.72583078000007
SAT_10_00
1 00041U 24001A   24001.00000000  .00000000  00000-0  00000-0 0  9997
2 00041  20.3026 165.4225 0000000   0.0000  60.0000 13.72583078000005
SAT_10_01
1 00042U 24001A   24001.00000000  .00000000  00000-0  00000-0 0  9998
2 00042  20.3026 165.4225 0000000   0.0000 150.0000 13.72583078000006
SAT_10_02
1 00043U 24001A   24001.00000000  .00000000  00000-0  00000-0 0  9999
2 00043  20.3026 165.4225 0000000   0.0000 240.0000 13.72583078000007
SAT_10_03
1 00044U 24001A   24001.00000000  .00000000  00000-0  00000-0 0  9990
2 00044  20.3026 165.4225 0000000   0.0000 330.0000 13.72583078000008
SAT_11_00
1 00045U 24001A   24001.00000000  .00000000  00000-0  00000-0 0  9991
2 00045  20.3026 255.4225 0000000   0.0000  66.0000 13.72583078000005
SAT_11_01
1 00046U 24001A   24001.00000000  .00000000  00000-0  00000-0 0  9992
2 00046  20.3026 255.4225 0000000   0.0000 156.0000 13.72583078000006
SAT_11_02
1 00047U 24001A   24001.00000000  .00000000  00000-0  00000-0 0  9993
2 00047  20.3026 255.4225 0000000   0.0000 246.0000 13.72583078000007
SAT_11_03
1 00048U 24001A   24001.00000000  .00000000  00000-0  00000-0 0  9994
2 00048  20.3026 255.4225 0000000   0.0000 336.0000 13.72583078000008
SAT_12_00
1 00049U 24001A   24001.00000000  .00000000  00000-0  00000-0 0  9995
2 00049  20.3026 345.4225 0000000   0.0000  72.0000 13.72583078000006
SAT_12_01
1 00050U 24001A   24001.00000000  .00000000  00000-0  00000-0 0  9997
2 00050  20.3026 345.4225 0000000   0.0000 162.0000 13.72583078000008
SAT_12_02
1 00051U 24001A   24001.00000000  .00000000  00000-0  00000-0 0  9998
2 00051  20.3026 345.4225 0000000   0.0000 252.0000 13.72583078000009
SAT_12_03
1 00052U 24001A   24001.00000000  .00000000  00000-0  00000-0 0  9999
2 00052  20.3026 345.4225 0000000   0.0000 342.0000 13.72583078000000
SAT_13_00
1 00053U 24001A   24001.00000000  .00000000  00000-0  00000-0 0  9990
2 00053  20.3026  75.4225 0000000   0.0000  78.0000 13.72583078000007
SAT_13_01
1 00054U 24001A   24001.00000000  .00000000  00000-0  00000-0 0  9991
2 00054  20.3026  75.4225 0000000   0.0000 168.0000 13.72583078000008
SAT_13_02
1 00055U 24001A   24001.00000000  .00000000  00000-0  00000-0 0  9992
2 00055  20.3026  75.4225 0000000   0.0000 258.0000 13.72583078000009
SAT_13_03
1 00056U 24001A   24001.00000000  .00000000  00000-0  00000-0 0  9993
2 00056  20.3026  75.4225 0000000   0.0000 348.0000 13.72583078000000
SAT_14_00
1 00057U 24001A   24001.00000000  .00000000  00000-0  00000-0 0  9994
2 00057  20.3026 165.4225 0000000   0.0000  84.0000 13.72583078000008
SAT_14_01
1 00058U 24001A   24001.00000000  .00000000  00000-0  00000-0 0  9995
2 00058  20.3026 165.4225 0000000   0.0000 174.0000 13.72583078000009
SAT_14_02
1 00059U 24001A   24001.00000000  .00000000  00000-0  00000-0 0  9996
2 00059  20.3026 165.4225 0000000   0.0000 264.0000 13.72583078000000
SAT_14_03
1 00060U 24001A   24001.00000000  .00000000  00000-0  00000-0 0  9998
2 00060  20.3026 165.4225 0000000   0.0000 354.0000 13.72583078000002