
STARLINK-1013           
1 44719U 19074G   25233.69848253  .00555371  16245-3  69459-3 0  9999
2 44719  53.0443 310.1066 0006691 340.3296 157.3348 16.07053171319524
STARLINK-1015           
1 44721U 19074J   25232.91670139  .00155451  00000+0  69344-3 0  9998
2 44721  53.0521 323.3508 0004682 281.0085 206.4804 15.83303710  5925
STARLINK-1017           
1 44723U 19074L   25232.68205978  .00022596  00000+0  14149-2 0  9994
2 44723  53.0560   8.2557 0002184 174.9502 185.1511 15.09308827318468
STARLINK-1019           
1 44724U 19074M   25232.64801244 -.00000638  00000+0 -23955-4 0  9991
2 44724  53.0560   9.1297 0001351  90.2969 269.8175 15.06393710318448
STARLINK-1020           
1 44725U 19074N   25232.71989633 -.00000543  00000+0 -17574-4 0  9994
2 44725  53.0569  28.8075 0001354  86.3545 273.7599 15.06399049318174
STARLINK-1021           
1 44726U 19074P   25232.91670139  .00111060  00000+0  61335-3 0  9993
2 44726  53.0505 328.0474 0006015 262.4772 140.2020 15.78810673  5979
STARLINK-1029           
1 44734U 19074X   25232.91670139  .00211537  00000+0  14298-2 0  9997
2 44734  53.0535 250.7541 0011127 355.4168 102.6630 15.73834306  5961
